SL-16 R/B               
1 25400U 98043G   25363.49754523  .00000130  00000+0  73367-4 0  9996
2 25400  98.8149 311.4114 0009186 213.0340 147.0266 14.26029827428982
SL-16 R/B               
1 25407U 98045B   25363.36365780  .00000175  00000+0  11263-3 0  9999
2 25407  71.0125 329.4662 0005889 148.8947 211.2526 14.16180663417141
ISS (ZARYA)             
1 25544U 98067A   25363.43624788  .00018325  00000+0  32897-3 0  9991
2 25544  51.6324  59.7835 0003287 318.5609  41.5130 15.49941804545443
CZ-4B R/B               
1 25732U 99025C   25363.10849134  .00000094  00000+0  66422-4 0  9999
2 25732  98.6747  44.0206 0037039 186.3818 193.1519 14.18247762378161
OKEAN-O                 
1 25860U 99039A   25363.28413205  .00001081  00000+0  14920-3 0  9993
2 25860  97.9580  58.8410 0001212 115.1066 245.0271 14.80191390423975
SL-16 R/B               
1 25861U 99039B   25363.12828057  .00000931  00000+0  12506-3 0  9993
2 25861  98.0104  57.2789 0015969 123.7588 236.5148 14.81611862426412
DELTA 2 R/B             
1 25876U 99041E   25362.92863728  .00002114  00000+0  37862-3 0  9990
2 25876  51.7596 223.8201 0504365 139.4755 224.4894 14.11450370353031
HELIOS 1B               
1 25977U 99064A   25363.21886671  .00002918  00000+0  32944-3 0  9990
2 25977  98.1750 258.3737 0000722  32.7612 327.3648 14.87353968674788
TERRA                   
1 25994U 99068A   25363.45607374  .00000701  00000+0  15219-3 0  9994
2 25994  97.9727  54.5251 0003283  60.7252  53.2616 14.60922016384821
SL-16 R/B               
1 26070U 00006B   25363.07818261  .00000312  00000+0  18261-3 0  9999
2 26070  71.0010 246.3051 0018631 286.5871  73.3206 14.15811139338563
TITAN 4B R/B            
1 26474U 00047B   25363.38176219  .00005082  00000+0  32449-3 0  9999
2 26474  67.9890 238.1126 0037824 124.1419 236.3326 15.08907758382304
ENVISAT                 
1 27386U 02009A   25352.94754304  .00000081  00000+0  39999-4 0  9991
2 27386  98.3609 303.5309 0001126  84.8976 298.2993 14.39001403247569
